[{"OBJECT_NAME":"ONEWEB-0422","OBJECT_ID":"2022-012E","EPOCH":"2026-02-07T23:37:00.611040","MEAN_MOTION":13.17651443,"ECCENTRICITY":0.0001174,"INCLINATION":87.9111,"RA_OF_ASC_NODE":31.5156,"ARG_OF_PERICENTER":90.1976,"MEAN_ANOMALY":269.929,"EPHEMERIS_TYPE":0,"CLASSIFICATION_TYPE":"U","NORAD_CAT_ID":51626,"ELEMENT_SET_NO":999,"REV_AT_EPOCH":19679,"BSTAR":7.0126e-5,"MEAN_MOTION_DOT":4.0e-7,"MEAN_MOTION_DDOT":0},{"OBJECT_NAME":"ONEWEB-0423","OBJECT_ID":"2022-012F","EPOCH":"2026-02-07T23:27:17.779968","MEAN_MOTION":13.1764892,"ECCENTRICITY":0.0001775,"INCLINATION":87.911,"RA_OF_ASC_NODE":31.5265,"ARG_OF_PERICENTER":83.435,"MEAN_ANOMALY":276.6983,"EPHEMERIS_TYPE":0,"CLASSIFICATION_TYPE":"U","NORAD_CAT_ID":51627,"ELEMENT_SET_NO":999,"REV_AT_EPOCH":19668,"BSTAR":4.7456e-5,"MEAN_MOTION_DOT":3.1e-7,"MEAN_MOTION_DDOT":0},{"OBJECT_NAME":"ONEWEB-0425","OBJECT_ID":"2022-012G","EPOCH":"2026-02-08T01:31:21.725760","MEAN_MOTION":13.10369343,"ECCENTRICITY":0.00020476,"INCLINATION":87.8757,"RA_OF_ASC_NODE":61.9909,"ARG_OF_PERICENTER":81.6051,"MEAN_ANOMALY":278.5309,"EPHEMERIS_TYPE":0,"CLASSIFICATION_TYPE":"U","NORAD_CAT_ID":51628,"ELEMENT_SET_NO":999,"REV_AT_EPOCH":19241,"BSTAR":0.00061059008,"MEAN_MOTION_DOT":2.26e-6,"MEAN_MOTION_DDOT":0},{"OBJECT_NAME":"ONEWEB-0428","OBJECT_ID":"2022-012H","EPOCH":"2026-02-08T02:52:38.414784","MEAN_MOTION":13.10374017,"ECCENTRICITY":0.00018311,"INCLINATION":87.8755,"RA_OF_ASC_NODE":61.9948,"ARG_OF_PERICENTER":92.6602,"MEAN_ANOMALY":267.4735,"EPHEMERIS_TYPE":0,"CLASSIFICATION_TYPE":"U","NORAD_CAT_ID":51629,"ELEMENT_SET_NO":999,"REV_AT_EPOCH":19238,"BSTAR":0.0017629251,"MEAN_MOTION_DOT":6.28e-6,"MEAN_MOTION_DDOT":0},{"OBJECT_NAME":"ONEWEB-0431","OBJECT_ID":"2022-012J","EPOCH":"2026-02-08T02:09:23.097024","MEAN_MOTION":13.10372164,"ECCENTRICITY":0.00019037,"INCLINATION":87.8758,"RA_OF_ASC_NODE":61.9844,"ARG_OF_PERICENTER":112.5907,"MEAN_ANOMALY":247.5422,"EPHEMERIS_TYPE":0,"CLASSIFICATION_TYPE":"U","NORAD_CAT_ID":51630,"ELEMENT_SET_NO":999,"REV_AT_EPOCH":19243,"BSTAR":-0.0019045221,"MEAN_MOTION_DOT":-6.52e-6,"MEAN_MOTION_DDOT":0},{"OBJECT_NAME":"ONEWEB-0434","OBJECT_ID":"2022-012K","EPOCH":"2026-02-08T01:36:20.267136","MEAN_MOTION":13.10369269,"ECCENTRICITY":0.00021805,"INCLINATION":87.8747,"RA_OF_ASC_NODE":62.0197,"ARG_OF_PERICENTER":74.8405,"MEAN_ANOMALY":285.2964,"EPHEMERIS_TYPE":0,"CLASSIFICATION_TYPE":"U","NORAD_CAT_ID":51631,"ELEMENT_SET_NO":999,"REV_AT_EPOCH":19241,"BSTAR":1.0455233e-5,"MEAN_MOTION_DOT":1.6e-7,"MEAN_MOTION_DDOT":0},{"OBJECT_NAME":"ONEWEB-0435","OBJECT_ID":"2022-012L","EPOCH":"2026-02-08T01:48:04.472928","MEAN_MOTION":13.10369932,"ECCENTRICITY":0.00014372,"INCLINATION":87.875,"RA_OF_ASC_NODE":62.0083,"ARG_OF_PERICENTER":94.1362,"MEAN_ANOMALY":265.993,"EPHEMERIS_TYPE":0,"CLASSIFICATION_TYPE":"U","NORAD_CAT_ID":51632,"ELEMENT_SET_NO":999,"REV_AT_EPOCH":19240,"BSTAR":-0.0010846301,"MEAN_MOTION_DOT":-3.66e-6,"MEAN_MOTION_DDOT":0},{"OBJECT_NAME":"ONEWEB-0436","OBJECT_ID":"2022-012M","EPOCH":"2026-02-07T23:15:08.833536","MEAN_MOTION":13.17648338,"ECCENTRICITY":0.00016683,"INCLINATION":87.911,"RA_OF_ASC_NODE":31.507,"ARG_OF_PERICENTER":91.6495,"MEAN_ANOMALY":268.4828,"EPHEMERIS_TYPE":0,"CLASSIFICATION_TYPE":"U","NORAD_CAT_ID":51633,"ELEMENT_SET_NO":999,"REV_AT_EPOCH":19666,"BSTAR":8.6908064e-5,"MEAN_MOTION_DOT":4.7e-7,"MEAN_MOTION_DDOT":0},{"OBJECT_NAME":"ONEWEB-0438","OBJECT_ID":"2022-012N","EPOCH":"2026-02-08T03:14:09.286944","MEAN_MOTION":13.1036981,"ECCENTRICITY":0.00019883,"INCLINATION":87.875,"RA_OF_ASC_NODE":61.9975,"ARG_OF_PERICENTER":90.497,"MEAN_ANOMALY":269.6385,"EPHEMERIS_TYPE":0,"CLASSIFICATION_TYPE":"U","NORAD_CAT_ID":51634,"ELEMENT_SET_NO":999,"REV_AT_EPOCH":19244,"BSTAR":0.001138975,"MEAN_MOTION_DOT":4.1e-6,"MEAN_MOTION_DDOT":0},{"OBJECT_NAME":"ONEWEB-0439","OBJECT_ID":"2022-012P","EPOCH":"2026-02-08T03:18:55.851552","MEAN_MOTION":13.10369387,"ECCENTRICITY":0.00018044,"INCLINATION":87.8749,"RA_OF_ASC_NODE":61.9856,"ARG_OF_PERICENTER":92.2393,"MEAN_ANOMALY":267.8941,"EPHEMERIS_TYPE":0,"CLASSIFICATION_TYPE":"U","NORAD_CAT_ID":51635,"ELEMENT_SET_NO":999,"REV_AT_EPOCH":19242,"BSTAR":0.00075761903,"MEAN_MOTION_DOT":2.77e-6,"MEAN_MOTION_DDOT":0},{"OBJECT_NAME":"ONEWEB-0442","OBJECT_ID":"2022-012Q","EPOCH":"2026-02-08T00:53:34.694304","MEAN_MOTION":13.17655568,"ECCENTRICITY":0.00024092,"INCLINATION":87.91,"RA_OF_ASC_NODE":31.5355,"ARG_OF_PERICENTER":80.3639,"MEAN_ANOMALY":279.7764,"EPHEMERIS_TYPE":0,"CLASSIFICATION_TYPE":"U","NORAD_CAT_ID":51636,"ELEMENT_SET_NO":999,"REV_AT_EPOCH":19666,"BSTAR":-5.3881869e-5,"MEAN_MOTION_DOT":-8.0e-8,"MEAN_MOTION_DDOT":0},{"OBJECT_NAME":"ONEWEB-0443","OBJECT_ID":"2022-012R","EPOCH":"2026-02-07T23:32:10.975776","MEAN_MOTION":13.17647326,"ECCENTRICITY":0.0001806,"INCLINATION":87.9095,"RA_OF_ASC_NODE":31.549,"ARG_OF_PERICENTER":77.9451,"MEAN_ANOMALY":282.1883,"EPHEMERIS_TYPE":0,"CLASSIFICATION_TYPE":"U","NORAD_CAT_ID":51637,"ELEMENT_SET_NO":999,"REV_AT_EPOCH":19670,"BSTAR":0.0025861,"MEAN_MOTION_DOT":1.017e-5,"MEAN_MOTION_DDOT":0},{"OBJECT_NAME":"ONEWEB-0444","OBJECT_ID":"2022-012S","EPOCH":"2026-02-08T03:04:35.958144","MEAN_MOTION":13.10371052,"ECCENTRICITY":0.00017993,"INCLINATION":87.8754,"RA_OF_ASC_NODE":61.9864,"ARG_OF_PERICENTER":92.297,"MEAN_ANOMALY":267.8363,"EPHEMERIS_TYPE":0,"CLASSIFICATION_TYPE":"U","NORAD_CAT_ID":51638,"ELEMENT_SET_NO":999,"REV_AT_EPOCH":19243,"BSTAR":0.0016991554,"MEAN_MOTION_DOT":6.06e-6,"MEAN_MOTION_DDOT":0},{"OBJECT_NAME":"ONEWEB-0445","OBJECT_ID":"2022-012T","EPOCH":"2026-02-08T01:45:41.138784","MEAN_MOTION":13.10369951,"ECCENTRICITY":0.0001977,"INCLINATION":87.8765,"RA_OF_ASC_NODE":61.973,"ARG_OF_PERICENTER":96.5401,"MEAN_ANOMALY":263.5951,"EPHEMERIS_TYPE":0,"CLASSIFICATION_TYPE":"U","NORAD_CAT_ID":51639,"ELEMENT_SET_NO":999,"REV_AT_EPOCH":19243,"BSTAR":-0.00082597326,"MEAN_MOTION_DOT":-2.76e-6,"MEAN_MOTION_DDOT":0},{"OBJECT_NAME":"ONEWEB-0446","OBJECT_ID":"2022-012U","EPOCH":"2026-02-08T03:02:12.544512","MEAN_MOTION":13.10371882,"ECCENTRICITY":0.0001987,"INCLINATION":87.8752,"RA_OF_ASC_NODE":62.0032,"ARG_OF_PERICENTER":96.0327,"MEAN_ANOMALY":264.1026,"EPHEMERIS_TYPE":0,"CLASSIFICATION_TYPE":"U","NORAD_CAT_ID":51640,"ELEMENT_SET_NO":999,"REV_AT_EPOCH":19242,"BSTAR":0.0017850535,"MEAN_MOTION_DOT":6.36e-6,"MEAN_MOTION_DDOT":0},{"OBJECT_NAME":"ONEWEB-0448","OBJECT_ID":"2022-012V","EPOCH":"2026-02-08T03:09:22.541760","MEAN_MOTION":13.10370714,"ECCENTRICITY":0.00018095,"INCLINATION":87.8747,"RA_OF_ASC_NODE":62.0011,"ARG_OF_PERICENTER":93.1104,"MEAN_ANOMALY":267.023,"EPHEMERIS_TYPE":0,"CLASSIFICATION_TYPE":"U","NORAD_CAT_ID":51641,"ELEMENT_SET_NO":999,"REV_AT_EPOCH":19239,"BSTAR":0.001532449,"MEAN_MOTION_DOT":5.48e-6,"MEAN_MOTION_DDOT":0},{"OBJECT_NAME":"ONEWEB-0449","OBJECT_ID":"2022-012W","EPOCH":"2026-02-08T03:16:32.646144","MEAN_MOTION":13.10369208,"ECCENTRICITY":0.00020515,"INCLINATION":87.8758,"RA_OF_ASC_NODE":61.9753,"ARG_OF_PERICENTER":78.5408,"MEAN_ANOMALY":281.595,"EPHEMERIS_TYPE":0,"CLASSIFICATION_TYPE":"U","NORAD_CAT_ID":51642,"ELEMENT_SET_NO":999,"REV_AT_EPOCH":19240,"BSTAR":0.00071649119,"MEAN_MOTION_DOT":2.63e-6,"MEAN_MOTION_DDOT":0},{"OBJECT_NAME":"ONEWEB-0451","OBJECT_ID":"2022-012X","EPOCH":"2026-02-07T23:10:16.997664","MEAN_MOTION":13.17647667,"ECCENTRICITY":0.0001891,"INCLINATION":87.9111,"RA_OF_ASC_NODE":31.5028,"ARG_OF_PERICENTER":83.3122,"MEAN_ANOMALY":276.8224,"EPHEMERIS_TYPE":0,"CLASSIFICATION_TYPE":"U","NORAD_CAT_ID":51643,"ELEMENT_SET_NO":999,"REV_AT_EPOCH":19664,"BSTAR":8.7992e-6,"MEAN_MOTION_DOT":1.6e-7,"MEAN_MOTION_DDOT":0},{"OBJECT_NAME":"ONEWEB-0452","OBJECT_ID":"2022-012Y","EPOCH":"2026-02-08T00:57:13.102272","MEAN_MOTION":13.17649826,"ECCENTRICITY":0.00017722,"INCLINATION":87.91,"RA_OF_ASC_NODE":31.5372,"ARG_OF_PERICENTER":77.2617,"MEAN_ANOMALY":282.8712,"EPHEMERIS_TYPE":0,"CLASSIFICATION_TYPE":"U","NORAD_CAT_ID":51644,"ELEMENT_SET_NO":999,"REV_AT_EPOCH":19666,"BSTAR":2.035594e-6,"MEAN_MOTION_DOT":1.4e-7,"MEAN_MOTION_DDOT":0},{"OBJECT_NAME":"ONEWEB-0456","OBJECT_ID":"2022-012AA","EPOCH":"2026-02-08T01:40:56.034336","MEAN_MOTION":13.10372942,"ECCENTRICITY":0.00016738,"INCLINATION":87.8769,"RA_OF_ASC_NODE":61.9643,"ARG_OF_PERICENTER":92.6109,"MEAN_ANOMALY":267.521,"EPHEMERIS_TYPE":0,"CLASSIFICATION_TYPE":"U","NORAD_CAT_ID":51646,"ELEMENT_SET_NO":999,"REV_AT_EPOCH":19243,"BSTAR":-0.00044958218,"MEAN_MOTION_DOT":-1.44e-6,"MEAN_MOTION_DDOT":0},{"OBJECT_NAME":"ONEWEB-0457","OBJECT_ID":"2022-012AB","EPOCH":"2026-02-08T02:57:25.736256","MEAN_MOTION":13.10373358,"ECCENTRICITY":0.0002332,"INCLINATION":87.8752,"RA_OF_ASC_NODE":61.991,"ARG_OF_PERICENTER":94.5518,"MEAN_ANOMALY":265.5876,"EPHEMERIS_TYPE":0,"CLASSIFICATION_TYPE":"U","NORAD_CAT_ID":51647,"ELEMENT_SET_NO":999,"REV_AT_EPOCH":19244,"BSTAR":0.001675893,"MEAN_MOTION_DOT":5.98e-6,"MEAN_MOTION_DDOT":0},{"OBJECT_NAME":"ONEWEB-0458","OBJECT_ID":"2022-012AC","EPOCH":"2026-02-08T01:38:31.584768","MEAN_MOTION":13.10369679,"ECCENTRICITY":0.00018321,"INCLINATION":87.8757,"RA_OF_ASC_NODE":61.9805,"ARG_OF_PERICENTER":86.5215,"MEAN_ANOMALY":273.6122,"EPHEMERIS_TYPE":0,"CLASSIFICATION_TYPE":"U","NORAD_CAT_ID":51648,"ELEMENT_SET_NO":999,"REV_AT_EPOCH":19239,"BSTAR":-6.114089e-5,"MEAN_MOTION_DOT":-9.0e-8,"MEAN_MOTION_DDOT":0},{"OBJECT_NAME":"ONEWEB-0461","OBJECT_ID":"2022-012AD","EPOCH":"2026-02-08T01:28:47.743680","MEAN_MOTION":13.1764851,"ECCENTRICITY":0.00019717,"INCLINATION":87.9111,"RA_OF_ASC_NODE":31.4985,"ARG_OF_PERICENTER":88.6901,"MEAN_ANOMALY":271.4457,"EPHEMERIS_TYPE":0,"CLASSIFICATION_TYPE":"U","NORAD_CAT_ID":51649,"ELEMENT_SET_NO":999,"REV_AT_EPOCH":19688,"BSTAR":0.0001543064,"MEAN_MOTION_DOT":7.3e-7,"MEAN_MOTION_DDOT":0}]
